{"type": "FeatureCollection", "features": [{"type": "Feature", "properties": {"nom": "La R\u00e9union \u2014 contour dissous (M65 P8)"}, "geometry": {"type": "MultiPolygon", "coordinates": [[[[55.533181, -21.36349], [55.523839, -21.361102], [55.518817, -21.357859], [55.517105, -21.358536], [55.507064, -21.353011], [55.506004, -21.354491], [55.501243, -21.350656], [55.487958, -21.349996], [55.484381, -21.352108], [55.481405, -21.347683], [55.478597, -21.348113], [55.480335, -21.34685], [55.478985, -21.344216], [55.479609, -21.341254], [55.47825, -21.34439], [55.474061, -21.344141], [55.475249, -21.344313], [55.47567, -21.345879], [55.477187, -21.3448], [55.477893, -21.344952], [55.478639, -21.346051], [55.477503, -21.34505], [55.477465, -21.346223], [55.475028, -21.346382], [55.474951, -21.344602], [55.470122, -21.34463], [55.459818, -21.341375], [55.454109, -21.334836], [55.454548, -21.330997], [55.451946, -21.329813], [55.450723, -21.331051], [55.451356, -21.329693], [55.448648, -21.328159], [55.429843, -21.326249], [55.41747, -21.319992], [55.411459, -21.31439], [55.408536, -21.307511], [55.404, -21.303623], [55.41877, -21.294744], [55.40408, -21.30333], [55.397768, -21.296378], [55.391181, -21.292626], [55.375845, -21.286689], [55.342622, -21.281643], [55.342374, -21.280649], [55.341349, -21.281775], [55.340854, -21.280277], [55.339534, -21.281041], [55.333717, -21.276149], [55.332361, -21.27338], [55.334547, -21.269538], [55.331535, -21.265135], [55.331122, -21.259582], [55.322281, -21.252865], [55.320759, -21.252388], [55.320573, -21.249051], [55.315123, -21.244281], [55.313066, -21.24469], [55.310903, -21.24029], [55.306663, -21.23701], [55.301834, -21.236341], [55.293, -21.230086], [55.292471, -21.224143], [55.288143, -21.218373], [55.285703, -21.207738], [55.280561, -21.202958], [55.282707, -21.200986], [55.286842, -21.186024], [55.285632, -21.170093], [55.286569, -21.169407], [55.285291, -21.168485], [55.285261, -21.167737], [55.286109, -21.168616], [55.285953, -21.165499], [55.28746, -21.163217], [55.281471, -21.15342], [55.271796, -21.149856], [55.272449, -21.147019], [55.270307, -21.143391], [55.271641, -21.142999], [55.271411, -21.135597], [55.27166084541591, -21.1355126460264], [55.270576, -21.134086], [55.27103, -21.131617], [55.268166, -21.130616], [55.26717, -21.127253], [55.264062, -21.126835], [55.252946, -21.112714], [55.25441844962765, -21.10969893894661], [55.253816, -21.109687], [55.231047, -21.091434], [55.221232, -21.078356], [55.220316, -21.071394], [55.222027, -21.054633], [55.223296, -21.055967], [55.226335, -21.054115], [55.226005, -21.053498], [55.223773, -21.054996], [55.223215, -21.055092], [55.222634, -21.05489], [55.224055, -21.053611], [55.217897, -21.043779], [55.217141, -21.036133], [55.235304, -21.018016], [55.246362, -21.019983], [55.250128, -21.018961], [55.266785, -21.00987], [55.276322, -21.000751], [55.27977, -20.993907], [55.282642, -20.978166], [55.282135, -20.970436], [55.27732, -20.957835], [55.27754, -20.953689], [55.280882, -20.94689], [55.281252, -20.937108], [55.284784, -20.938102], [55.283396, -20.938331], [55.282217, -20.945286], [55.283806, -20.944176], [55.284144, -20.938527], [55.286434, -20.940575], [55.286713, -20.938871], [55.287367, -20.938728], [55.287805, -20.940537], [55.287072, -20.934894], [55.289396, -20.935026], [55.287833, -20.934154], [55.289689, -20.93302], [55.286396, -20.932326], [55.288159, -20.930732], [55.285755, -20.930531], [55.284639, -20.934902], [55.286382, -20.935798], [55.28226, -20.935859], [55.284019, -20.933661], [55.284006, -20.925804], [55.288531, -20.922867], [55.304192, -20.929055], [55.318003, -20.928316], [55.319186, -20.927055], [55.319373, -20.931221], [55.312997, -20.931737], [55.313122, -20.932906], [55.319505, -20.932751], [55.322356, -20.935333], [55.325059, -20.935026], [55.325063, -20.929537], [55.322738, -20.929118], [55.321748, -20.926247], [55.324071, -20.928621], [55.330252, -20.927595], [55.34538, -20.921464], [55.351943, -20.911714], [55.362729, -20.906097], [55.370106, -20.897551], [55.37576323015907, -20.896431370131157], [55.375672, -20.89603], [55.380759, -20.890732], [55.380982, -20.891858], [55.384525, -20.890632], [55.39506, -20.8818], [55.400797, -20.879994], [55.421507, -20.874353], [55.428046, -20.874662], [55.42816, -20.873437], [55.441514, -20.876132], [55.449747, -20.871865], [55.453256, -20.873185], [55.460634, -20.879491], [55.470845, -20.88455], [55.488874, -20.885908], [55.502087, -20.882431], [55.51127, -20.884014], [55.520097, -20.888168], [55.536452, -20.891372], [55.537246, -20.892431], [55.535449, -20.892794], [55.537871, -20.893654], [55.537475, -20.891355], [55.538352, -20.893218], [55.542562, -20.894717], [55.550868, -20.895466], [55.558651, -20.891533], [55.571902, -20.893021], [55.57526, -20.894672], [55.582749, -20.897618], [55.592732, -20.896129], [55.620745, -20.910493], [55.62869, -20.910647], [55.647161, -20.915271], [55.665916, -20.926051], [55.669527, -20.932172], [55.682295, -20.943606], [55.687358, -20.950555], [55.696897, -20.965446], [55.700657, -20.978617], [55.700816, -21.004892], [55.702457, -21.016635], [55.705151, -21.019658], [55.704509, -21.021337], [55.707038, -21.026981], [55.717145, -21.031321], [55.723881, -21.038932], [55.726487, -21.045268], [55.73219, -21.049652], [55.730886, -21.055664], [55.731479, -21.0606], [55.73729, -21.069915], [55.755166, -21.087972], [55.762151, -21.099997], [55.767333, -21.103598], [55.772063, -21.107732], [55.779793, -21.121531], [55.783073, -21.124668], [55.785961, -21.125776], [55.791688, -21.124261], [55.796273, -21.125434], [55.806512, -21.132623], [55.809701, -21.137509], [55.814786, -21.139773], [55.817298, -21.13881], [55.8257, -21.143611], [55.82754, -21.152349], [55.829116, -21.152657], [55.831628, -21.158187], [55.83497, -21.160525], [55.835247, -21.163795], [55.832534, -21.165634], [55.833708, -21.176285], [55.836614, -21.18332], [55.831724, -21.186408], [55.825793, -21.186088], [55.824894, -21.202681], [55.822732, -21.207266], [55.817657, -21.209487], [55.814247, -21.213906], [55.813331, -21.220576], [55.808518, -21.22724], [55.808621, -21.235518], [55.80511, -21.244604], [55.804303, -21.252015], [55.801369, -21.260086], [55.804044, -21.272085], [55.803056, -21.276773], [55.808142, -21.28803], [55.805332, -21.293518], [55.805224, -21.306199], [55.803767, -21.309407], [55.805826, -21.317622], [55.804884, -21.319975], [55.80592, -21.325846], [55.80905, -21.331083], [55.807334, -21.336716], [55.797161, -21.350483], [55.788636, -21.354628], [55.783135, -21.359345], [55.782826, -21.361638], [55.78192, -21.360804], [55.774218, -21.365697], [55.75633, -21.363019], [55.751153, -21.367515], [55.747378, -21.3685], [55.734045, -21.368746], [55.731117, -21.370457], [55.728058, -21.36944], [55.716448, -21.374929], [55.711272, -21.374919], [55.710902, -21.376308], [55.710411, -21.375391], [55.708788, -21.376569], [55.700428, -21.376401], [55.68061, -21.374701], [55.67768, -21.376267], [55.677376, -21.378676], [55.675649, -21.37869], [55.674723, -21.381261], [55.67139, -21.383873], [55.659111, -21.382691], [55.64642, -21.389631], [55.643317, -21.387647], [55.643936, -21.385579], [55.636396, -21.382659], [55.625678, -21.382875], [55.609568, -21.387036], [55.602633, -21.383741], [55.598277, -21.378559], [55.590677, -21.376049], [55.590212, -21.377077], [55.586859, -21.371604], [55.583167, -21.372415], [55.571761, -21.376351], [55.563876, -21.372458], [55.561192, -21.373306], [55.554971, -21.371168], [55.550992, -21.374312], [55.548049, -21.369673], [55.53638, -21.363328], [55.533181, -21.36349]]], [[[55.224852, -21.054298], [55.225481, -21.054274], [55.225281, -21.054698], [55.224161, -21.055288], [55.224852, -21.054298]]], [[[55.567003, -21.377781], [55.568219, -21.375898], [55.569045, -21.376075], [55.568434, -21.377443], [55.567003, -21.377781]]]]}}]}